IRIDIUM 159             
1 43578U 18061K   24227.75399557  .00000994  00000+0  34802-3 0  9991
2 43578  86.4015 337.3075 0002190  96.1582 263.9864 14.34214773317144
IRIDIUM 180             
1 43922U 19002A   24227.89302818  .00001381  00000+0  48593-3 0  9992
2 43922  86.3931 274.1163 0002244  96.5749 263.5702 14.34216359292778
IRIDIUM 176             
1 43923U 19002B   24227.70601697  .00003172  00000+0  49889-3 0  9999
2 43923  86.6063 274.2117 0002379 100.3810 259.7675 14.72267160300459
IRIDIUM 168             
1 43924U 19002C   24227.88669368  .00000668  00000+0  23153-3 0  9991
2 43924  86.3932 274.1773 0002282  96.8372 263.3084 14.34222126292753
IRIDIUM 173             
1 43925U 19002D   24227.66470110  .00000509  00000+0  17459-3 0  9999
2 43925  86.3931 274.1867 0002277  94.2366 265.9090 14.34222613292707
IRIDIUM 169             
1 43926U 19002E   24227.76077324  .00000085  00000+0  21399-4 0  9999
2 43926  86.4234 305.7854 0003872  69.3804 290.7809 14.38603293293698
IRIDIUM 172             
1 43927U 19002F   24227.65835810  .00000531  00000+0  18268-3 0  9996
2 43927  86.3931 274.1951 0002189  92.9139 267.2308 14.34222566292713
IRIDIUM 175             
1 43928U 19002G   24227.76850102  .00001316  00000+0  20491-3 0  9993
2 43928  86.1471 244.0145 0002492  87.5381 272.6121 14.72225255300452
